[{"OBJECT_NAME":"STARLINK-5956","OBJECT_ID":"2023-042J","EPOCH":"2026-03-09T07:40:56.933760","MEAN_MOTION":15.0254302,"ECCENTRICITY":0.00015998,"INCLINATION":43.004,"RA_OF_ASC_NODE":58.2163,"ARG_OF_PERICENTER":281.1467,"MEAN_ANOMALY":78.9196,"EPHEMERIS_TYPE":0,"CLASSIFICATION_TYPE":"U","NORAD_CAT_ID":55994,"ELEMENT_SET_NO":999,"REV_AT_EPOCH":16285,"BSTAR":4.0507053e-5,"MEAN_MOTION_DOT":3.44e-6,"MEAN_MOTION_DDOT":0},{"OBJECT_NAME":"COSMOS 2251 DEB","OBJECT_ID":"1993-036BVX","EPOCH":"2026-03-07T01:08:49.279776","MEAN_MOTION":15.01172156,"ECCENTRICITY":0.00079061,"INCLINATION":73.9738,"RA_OF_ASC_NODE":312.9961,"ARG_OF_PERICENTER":93.9407,"MEAN_ANOMALY":333.6878,"EPHEMERIS_TYPE":0,"CLASSIFICATION_TYPE":"U","NORAD_CAT_ID":40794,"ELEMENT_SET_NO":999,"REV_AT_EPOCH":63186,"BSTAR":0.0025789321,"MEAN_MOTION_DOT":0.00033218,"MEAN_MOTION_DDOT":0}]
